FENGYUN 1C DEB          
1 33633U 99025DDS 24317.19142862  .00012238  00000+0  61821-2 0  9998
2 33633  99.0672  38.0763 0090106 191.6730 201.4689 14.14234383851099
FENGYUN 1C DEB          
1 33636U 99025DDV 24316.82753200  .00005268  00000+0  20649-2 0  9992
2 33636  98.4910 336.9103 0068808 182.2064 351.9842 14.28518015644104
FENGYUN 1C DEB          
1 33638U 99025DDX 24318.08704403  .00002539  00000+0  23823-2 0  9990
2 33638  98.4691 250.1969 0266691 244.8068 112.5211 13.67667019555178
FENGYUN 1C DEB          
1 33640U 99025DDZ 24319.25830679  .00004072  00000+0  11604-2 0  9996
2 33640  98.8102 240.9989 0093121 256.8839 102.1944 14.43317465866610
FENGYUN 1C DEB          
1 33643U 99025DEC 24319.11229884  .00814216  00000+0  51381-2 0  9999
2 33643  99.0527  95.9789 0035338 298.6094  61.1611 15.73636944912860
FENGYUN 1C DEB          
1 33645U 99025DEE 24310.57995599  .00508971  00000+0  16074-1 0  9992
2 33645  99.5383 169.3920 0087307  88.4158 272.7072 15.27243687864649
FENGYUN 1C DEB          
1 33648U 99025DEH 24318.27837648  .00000627  00000+0  36155-3 0  9999
2 33648  98.7133 322.1925 0068432 215.0793 144.5862 14.11470113588117
FENGYUN 1C DEB          
1 33650U 99025DEK 24318.24508483  .00002582  00000+0  20389-2 0  9994
2 33650  98.9635 132.1064 0151739  69.0910 292.6416 13.87187823633355
FENGYUN 1C DEB          
1 33651U 99025DEL 24319.36381449  .00000926  00000+0  42518-3 0  9999
2 33651  98.7122   6.0860 0118786 108.2531 253.1615 14.19894807586889
FENGYUN 1C DEB          
1 33655U 99025DEQ 24317.79433464  .00021628  00000+0  28254-2 0  9995
2 33655  98.8474 332.5968 0068399 183.8065 176.2632 14.78845317906837
FENGYUN 1C DEB          
1 33656U 99025DER 24315.25428441  .00003882  00000+0  17170-2 0  9991
2 33656  98.5633 313.3776 0092285 104.8623 256.2798 14.21479773570599
FENGYUN 1C DEB          
1 33658U 99025DET 24318.68763813  .00004506  00000+0  46931-2 0  9999
2 33658  99.5509 114.0987 0288482 104.0071 259.3320 13.59222697527799
FENGYUN 1C DEB          
1 33660U 99025DEV 24319.30588469  .00001002  00000+0  78987-3 0  9999
2 33660  98.6445 250.8842 0109615 249.0096 264.2336 13.91113745855927
FENGYUN 1C DEB          
1 33661U 99025DEW 24319.30603604  .00002248  00000+0  21042-2 0  9991
2 33661  98.4215 247.6244 0235102 129.1145  22.6512 13.70915704590622
FENGYUN 1C DEB          
1 33663U 99025DEY 24317.69357978  .00027291  00000+0  84648-2 0  9999
2 33663  98.8877 281.5426 0120133 118.2453 243.0921 14.36951514584773
FENGYUN 1C DEB          
1 33664U 99025DEZ 24319.40847652  .00000941  00000+0  55758-3 0  9998
2 33664  98.6566 119.7626 0166156  64.5091 297.3158 14.03171653852210
FENGYUN 1C DEB          
1 33665U 99025DFA 24317.61072363  .00008943  00000+0  23050-2 0  9998
2 33665  98.9767  72.7430 0475365 111.8019 253.4413 13.99284281871516
FENGYUN 1C DEB          
1 33668U 99025DFD 24318.29655027  .00086362  00000+0  31977-2 0  9998
2 33668  99.0164 336.3903 0079062  13.7650 346.5713 15.24376589901403
FENGYUN 1C DEB          
1 33673U 99025DFJ 24319.59996898  .00002090  00000+0  15272-2 0  9998
2 33673  99.3845 354.5301 0106851 208.2534 311.2195 13.94483649844209
FENGYUN 1C DEB          
1 33674U 99025DFK 24317.18706228  .00006674  00000+0  59421-2 0  9994
2 33674  98.6241  38.5346 0218204 222.7797 135.6193 13.74708907829257
FENGYUN 1C DEB          
1 33675U 99025DFL 24317.33661225  .00048147  00000+0  69078-2 0  9999
2 33675  99.1469  91.5567 0021733  69.2618 291.0915 14.76121101622826
FENGYUN 1C DEB          
1 33676U 99025DFM 24317.21364545  .00001331  00000+0  38353-3 0  9999
2 33676  99.1085 313.7065 0206734 144.6063 216.9045 14.34816317596375
FENGYUN 1C DEB          
1 33678U 99025DFP 24318.33540409  .00004894  00000+0  10918-2 0  9993
2 33678  99.0921 350.4913 0214030 330.5513  28.3754 14.44151555893963
FENGYUN 1C DEB          
1 33679U 99025DFQ 24319.41183869  .00024323  00000+0  21529-2 0  9996
2 33679  99.3850 305.5856 0220081 107.0234 255.5213 14.79493514882587
FENGYUN 1C DEB          
1 33681U 99025DFS 24318.12485399  .00001928  00000+0  12713-2 0  9990
2 33681  99.1021  10.6478 0101264  49.3848 339.5267 14.00463667847967
FENGYUN 1C DEB          
1 33682U 99025DFT 24318.77313958  .00006936  00000+0  31074-2 0  9998
2 33682  99.4453 330.2459 0031726 117.9386 242.5007 14.22590826860876
FENGYUN 1C DEB          
1 33684U 99025DFV 24318.99214222  .00015009  00000+0  13927-2 0  9996
2 33684  99.1061 324.8328 0332463 113.8965 249.7437 14.60797475872133
FENGYUN 1C DEB          
1 33687U 99025DFY 24317.09039099  .00018295  00000+0  12520-2 0  9994
2 33687  98.9777 251.0622 0169804 192.6908 167.0009 14.95118626655515
FENGYUN 1C DEB          
1 33688U 99025DFZ 24312.60930270  .00021117  00000+0  71025-2 0  9990
2 33688  99.3632  10.5146 0059812 353.9616   6.0840 14.36094308858194
FENGYUN 1C DEB          
1 33689U 99025DGA 24317.15071811  .00010924  00000+0  34068-2 0  9993
2 33689  99.5432 270.6995 0048678 225.2176 146.9223 14.40351999638255
FENGYUN 1C DEB          
1 33690U 99025DGB 24318.17752552  .00015583  00000+0  46751-2 0  9994
2 33690  98.6248  43.5226 0039292 161.0652 199.2008 14.42359438875123
FENGYUN 1C DEB          
1 33693U 99025DGE 24316.98569394  .00003938  00000+0  37831-2 0  9994
2 33693  99.2114 144.7567 0231438 314.1875  44.0458 13.69542834828105
FENGYUN 1C DEB          
1 33698U 99025DGK 24318.97603148  .00004009  00000+0  85222-3 0  9994
2 33698  99.6010 214.8338 0141869 306.1742  52.6395 14.53658006899113
FENGYUN 1C DEB          
1 33701U 99025DGN 24310.42832977  .00009420  00000+0  60121-2 0  9997
2 33701  98.6197 280.2674 0137872 233.4577 280.2783 13.99149533848720
FENGYUN 1C DEB          
1 33710U 99025DGX 24317.99421203  .00004738  00000+0  26979-2 0  9992
2 33710  98.9766  51.2895 0058062 177.8291 182.3141 14.09394124620912
FENGYUN 1C DEB          
1 33711U 99025DGY 24318.10748156  .00001938  00000+0  12951-2 0  9990
2 33711  99.2441   2.2387 0100143  50.3411   6.4509 13.99810487864081
FENGYUN 1C DEB          
1 33713U 99025DHA 24319.25042529  .00397435  00000+0  52847-2 0  9998
2 33713  99.0374 314.4368 0026459 286.1850  73.6488 15.56450819895873
FENGYUN 1C DEB          
1 33716U 99025DHD 24319.01168708  .00001211  00000+0  44484-3 0  9996
2 33716  98.8646 229.6953 0095403  69.6846 291.4558 14.32089439595218
FENGYUN 1C DEB          
1 33718U 99025DHF 24318.42145780  .00004858  00000+0  29053-2 0  9991
2 33718  99.6804  12.2030 0102214 319.0741  40.2783 14.05053807636421
FENGYUN 1C DEB          
1 33719U 99025DHG 24318.42542277  .00002990  00000+0  13909-2 0  9992
2 33719  98.8111  13.5025 0031477 134.3364 237.4411 14.21051138864089
FENGYUN 1C DEB          
1 33721U 99025DHJ 24317.60215336  .00061372  00000+0  50117-2 0  9998
2 33721  98.7882  82.2935 0076200 206.7525 152.9755 14.96865328920648
FENGYUN 1C DEB          
1 33722U 99025DHK 24317.50018984  .00003351  00000+0  14156-2 0  9994
2 33722  98.5984 337.0212 0161188 316.3435  42.5082 14.19483503865626
FENGYUN 1C DEB          
1 33723U 99025DHL 24296.17268543  .00007728  00000+0  43013-2 0  9998
2 33723  99.1729   2.2104 0105019  58.8580 302.2540 14.08505733856603
FENGYUN 1C DEB          
1 33724U 99025DHM 24317.99884891  .00002113  00000+0  10393-2 0  9991
2 33724  98.6208 333.4024 0026849 240.8718 151.2295 14.18481102891421
FENGYUN 1C DEB          
1 33726U 99025DHP 24319.14545631  .00001622  00000+0  74159-3 0  9993
2 33726  98.5922  91.3535 0196287  77.0915  95.1144 14.13060454863702
FENGYUN 1C DEB          
1 33728U 99025DHR 24318.47108132  .00015752  00000+0  14164-2 0  9999
2 33728  99.0105 314.1992 0167243  35.4055 115.2586 14.85617984924302
FENGYUN 1C DEB          
1 33730U 99025DHT 24312.29572612  .00021147  00000+0  49138-2 0  9998
2 33730  99.0950 327.0039 0048087 145.0827 215.3537 14.54230963900044
FENGYUN 1C DEB          
1 33731U 99025DHU 24314.99841705  .00006912  00000+0  49791-2 0  9998
2 33731  99.4647 321.6360 0131733  48.6888 312.5522 13.93030722849066
FENGYUN 1C DEB          
1 33733U 99025DHW 24319.16628515  .00012504  00000+0  54204-2 0  9995
2 33733  99.1148  22.5862 0091384 221.6017 196.7831 14.22138879848350
FENGYUN 1C DEB          
1 33737U 99025DJA 24319.60359389  .00003710  00000+0  23096-2 0  9992
2 33737  98.3790 179.8087 0133675 314.3255  99.5088 14.01144921832312
FENGYUN 1C DEB          
1 33738U 99025DJB 24318.43197804  .00002212  00000+0  13593-2 0  9992
2 33738  99.1941  11.9165 0188862  24.0515 347.6948 13.98233666837233
FENGYUN 1C DEB          
1 33740U 99025DJD 24318.77342783  .00000704  00000+0  40803-3 0  9999
2 33740  98.7101 337.3596 0001562 151.1868 208.9391 14.11995485845865
FENGYUN 1C DEB          
1 33741U 99025DJE 24319.25306425  .00005403  00000+0  31122-2 0  9991
2 33741  98.5596 246.9521 0133821 124.3588 237.0324 14.05105358513260
FENGYUN 1C DEB          
1 33745U 99025DJJ 24318.27833480  .00005774  00000+0  27518-2 0  9997
2 33745  99.1408 336.6403 0055848 310.9329  48.7018 14.18866246604001
FENGYUN 1C DEB          
1 33747U 99025DJL 24318.49468895  .00009269  00000+0  48263-2 0  9990
2 33747  99.1039  39.3534 0097525 250.6120 108.4490 14.12375344845566
FENGYUN 1C DEB          
1 33748U 99025DJM 24318.08849270  .00004858  00000+0  19173-2 0  9993
2 33748  98.6190   7.3223 0035707 324.8621  35.0206 14.29163500857462
FENGYUN 1C DEB          
1 35089U 99025DJR 24317.51836665  .00001237  00000+0  62272-3 0  9991
2 35089  98.5770 334.6429 0031419 128.0622 232.3395 14.17914874552716
FENGYUN 1C DEB          
1 35090U 99025DJS 24316.20414250  .00012544  00000+0  65067-2 0  9997
2 35090  99.2002 309.9054 0060056  54.3861 306.2885 14.13971231606382
FENGYUN 1C DEB          
1 35091U 99025DJT 24319.19703113  .00014098  00000+0  36607-2 0  9992
2 35091  98.5998  46.0001 0058416  59.3161 301.3770 14.48775330842027
